IRIDIUM 7               
1 24793U 97020B   26025.24909806  .00000608  00000+0  20204-3 0  9990
2 24793  86.3927  83.8463 0002570  96.0738 264.0752 14.36149766503765
IRIDIUM 5               
1 24795U 97020D   26025.38118504  .00009621  00000+0  74276-3 0  9996
2 24795  86.3910 341.0611 0105947  60.0621 301.1078 14.96992939518671
IRIDIUM 4               
1 24796U 97020E   26025.51089432  .00000620  00000+0  20240-3 0  9991
2 24796  86.3920  80.4628 0002323  96.3612 263.7849 14.37057044504398
IRIDIUM 914             
1 24836U 97030A   26025.44572534  .00000704  00000+0  21251-3 0  9995
2 24836  86.3909  88.4397 0002243 134.6421 225.4962 14.41120051639132
IRIDIUM 16              
1 24841U 97030F   26025.53203618  .00000790  00000+0  24997-3 0  9990
2 24841  86.4040 111.9157 0004095  75.9832 284.1821 14.38943920498976
IRIDIUM 911             
1 24842U 97030G   26025.32264000  .00001018  00000+0  26861-3 0  9996
2 24842  86.4461 110.5265 0016264  79.5027 280.8008 14.47966554507223
IRIDIUM 17              
1 24870U 97034B   26025.37562108  .00000889  00000+0  28706-3 0  9991
2 24870  86.4002 141.4014 0002672  58.2430 301.9028 14.38078667495514
IRIDIUM 920             
1 24871U 97034C   26025.33374497  .00000817  00000+0  24392-3 0  9998
2 24871  86.3994 120.1350 0013519  72.9658 287.3022 14.41784899498584
